0 COSMOS 2040
1 20234U 89074C   13284.19127946  .00000041  00000-0  17054-3 0  2860
2 20234 082.5851 321.4291 0004691 043.1128 017.5820 12.62521726109460
0 COSMOS 2040
1 20234U 89074C   13286.50045829  .00000038  00000-0  15358-3 0  2878
2 20234 082.5845 319.9564 0004592 038.1445 072.7146 12.62521796109757
0 COSMOS 2040
1 20234U 89074C   13288.78354572  .00000018  00000-0  39712-4 0  2888
2 20234 082.5840 318.4999 0004501 033.1000 009.3952 12.62522125110042
0 COSMOS 2040
1 20234U 89074C   13291.17603008  .00000004  00000-0 -37348-4 0  2896
2 20234 082.5839 316.9735 0004396 028.5547 082.5492 12.62522391110347
0 COSMOS 2040
1 20234U 89074C   13293.48820745  .00000009  00000-0 -10069-4 0  2909
2 20234 082.5839 315.4983 0004303 023.7316 151.1629 12.62522231110635
0 COSMOS 2040
1 20234U 89074C   13296.16866573  .00000042  00000-0  17515-3 0  2915
2 20234 082.5838 313.7881 0004223 017.4132 094.3039 12.62522160110970
